BEIDOU-3 M14            
1 43623U 18072B   26129.20348764 -.00000020  00000+0  00000+0 0  9991
2 43623  56.5941  63.9398 0006694 345.6638  14.3071  1.86231536 51926
BEIDOU-3 M16            
1 43647U 18078A   26129.35942515 -.00000037  00000+0  00000+0 0  9991
2 43647  54.1265 301.3466 0007924  39.4697 320.5792  1.86232384 51430
BEIDOU-3 M15            
1 43648U 18078B   26128.95177431 -.00000037  00000+0  00000+0 0  9994
2 43648  54.1224 301.3614 0005073  51.4620 308.5741  1.86232654 51445
BEIDOU-3 G1             
1 43683U 18085A   26131.51974168 -.00000095  00000+0  00000+0 0  9993
2 43683   2.9810  98.3406 0007637 338.4465 139.6118  1.00273066 27690
BEIDOU-3 M17            
1 43706U 18093A   26129.24918965  .00000044  00000+0  00000+0 0  9991
2 43706  54.1671 183.6178 0009134 291.2507 160.2904  1.86228609 50811
BEIDOU-3 M18            
1 43707U 18093B   26131.12349789  .00000065  00000+0  00000+0 0  9997
2 43707  54.1678 183.5463 0007319 322.2688  37.7592  1.86226925 50846
BEIDOU-3 IGSO-1         
1 44204U 19023A   26129.65679304 -.00000217  00000+0  00000+0 0  9998
2 44204  58.6428  38.0490 0024008 234.3721 307.0515  1.00251812  6826
BEIDOU-2 G8             
1 44231U 19027A   26131.55187041 -.00000235  00000+0  00000+0 0  9996
2 44231   1.5648  74.4102 0010988 282.0838 216.0409  1.00274091 25716
BEIDOU-3 IGSO-2         
1 44337U 19035A   26130.52174663 -.00000065  00000+0  00000+0 0  9995
2 44337  55.2384 159.1933 0039671 215.7274 161.0970  1.00278958 25297
BEIDOU-3 M24            
1 44542U 19061A   26131.19261955  .00000065  00000+0  00000+0 0  9996
2 44542  54.3946 183.9757 0008081   3.2774 356.8074  1.86229261 45102
BEIDOU-3 M23            
1 44543U 19061B   26131.34946017  .00000067  00000+0  00000+0 0  9995
2 44543  54.3931 183.9390 0005138 344.4737  32.5944  1.86227672 45118
BEIDOU-3 IGSO-3         
1 44709U 19073A   26120.85038409 -.00000212  00000+0  00000+0 0  9996
2 44709  54.8842 281.4069 0042404 188.8195 170.9972  1.00251230 23982
BEIDOU-3 M22            
1 44793U 19078A   26129.42102106 -.00000037  00000+0  00000+0 0  9997
2 44793  53.9723 301.1911 0007198  47.1122 312.9393  1.86227546 43925
BEIDOU-3 M21            
1 44794U 19078B   26130.09800295 -.00000037  00000+0  00000+0 0  9997
2 44794  53.9450 301.1295 0004992  44.9662 315.0658  1.86228028 43947
BEIDOU-3 M19            
1 44864U 19090A   26128.45489995 -.00000021  00000+0  00000+0 0  9999
2 44864  56.5258  64.1039 0019341 296.1478 239.2902  1.86231845 43492
BEIDOU-3 M20            
1 44865U 19090B   26129.38368757 -.00000020  00000+0  00000+0 0  9994
2 44865  56.5282  64.1078 0017025 308.8996 218.8417  1.86231698 43496
BEIDOU-3 G2             
1 45344U 20017A   26130.55600351 -.00000129  00000+0  00000+0 0  9998
2 45344   2.7884  46.8139 0002772   8.4061  93.3269  1.00270581 22885
BEIDOU-3 G3             
1 45807U 20040A   26131.55992919 -.00000342  00000+0  00000+0 0  9990
2 45807   2.3570  67.3353 0003488 333.3640 140.7275  1.00276584 21704
BEIDOU-3 G4             
1 56564U 23066A   26131.53881624 -.00000272  00000+0  00000+0 0  9993
2 56564   0.5356 322.7863 0003509 160.2188  80.2890  1.00266905 11021
BEIDOU-3 M28            
1 58654U 23207A   26131.24911002 -.00000026  00000+0  00000+0 0  9991
2 58654  55.7216  63.5491 0004270 329.6034  30.3603  1.86229722 16151
BEIDOU-3 M26            
1 58655U 23207B   26131.04660550 -.00000025  00000+0  00000+0 0  9998
2 58655  55.7236  63.5423 0004518 309.1836  50.7652  1.86229720 16133
BEIDOU-3 M25            
1 61186U 24168B   26131.38196060 -.00000038  00000+0  00000+0 0  9999
2 61186  54.5076 303.5215 0003163 314.2188  27.8013  1.86230138 11094
BEIDOU-3 M27            
1 61187U 24168C   26129.05472400 -.00000038  00000+0  00000+0 0  9996
2 61187  54.5049 303.5853 0002347  41.6147 315.1318  1.86230358  8521
